CZ-4B R/B               
1 29507U 06046C   23258.57395575  .00004480  00000+0  31591-3 0  9992
2 29507  97.6813 291.2876 0043955 133.4707 227.0188 15.04707907923232
GENESIS 2               
1 31789U 07028A   23258.57966380  .00012003  00000+0  43712-3 0  9994
2 31789  64.4938  53.3484 0053184 249.2675 110.2748 15.27217858895200
COSMOS 2428             
1 31792U 07029A   23258.53886747  .00000192  00000+0  12952-3 0  9991
2 31792  70.9302 305.1369 0006126  77.0479 283.1326 14.12559322836119
SL-16 R/B               
1 31793U 07029B   23258.53219299  .00000215  00000+0  13706-3 0  9998
2 31793  70.9743 276.7838 0002725 273.9743 198.6131 14.14555185837216
KORONAS-FOTON           
1 33504U 09003A   23258.59091232  .00004144  00000+0  18190-3 0  9992
2 33504  82.4376 120.6232 0018163 124.1518 236.1443 15.21517247807052
CZ-2C R/B               
1 37731U 11030B   23258.53909067  .00001996  00000+0  28669-3 0  9993
2 37731  97.7237 228.3928 0059087  55.0578  60.0733 14.76329433656166
H-2A R/B                
1 38341U 12025E   23258.28274270  .00002966  00000+0  33363-3 0  9994
2 38341  98.4414 147.6747 0053493  22.5810 337.7741 14.86516379613179
CUSAT 2 & FALCON 9 R/B  
1 39271U 13055G   23258.46310070  .00055571 -36932-6  90885-3 0  9993
2 39271  80.9461  44.1859 0414056 130.9584 232.8253 14.92480160523878
CZ-2C R/B               
1 39364U 13059B   23258.55205251  .00029261  00000+0  55846-3 0  9998
2 39364  97.0945 303.6011 0031514 125.3727 235.0476 15.47536538550145
SL-4 R/B                
1 39679U 14021B   23258.51623188  .00007152  00000+0  30571-3 0  9999
2 39679  51.6128 348.9585 0150138 106.5533 255.1991 15.14337563517926
SL-27 R/B               
1 40354U 14084B   23258.52655443  .00017276  00000+0  24839-3 0  9998
2 40354  74.7306  81.4060 0024460  32.5021 327.7699 15.55658520491046
YAOGAN-29               
1 41038U 15069A   23258.54741430  .00000748  00000+0  10240-3 0  9993
2 41038  98.0646 266.3039 0002468  81.7201 278.4291 14.81472027421656
