[{"OBJECT_NAME":"CZ-4B R\/B","OBJECT_ID":"2006-046C","EPOCH":"2023-09-15T13:46:29.776800","MEAN_MOTION":15.04707907,"ECCENTRICITY":0.0043955,"INCLINATION":97.6813,"RA_OF_ASC_NODE":291.2876,"ARG_OF_PERICENTER":133.4707,"MEAN_ANOMALY":227.0188,"EPHEMERIS_TYPE":0,"CLASSIFICATION_TYPE":"U","NORAD_CAT_ID":29507,"ELEMENT_SET_NO":999,"REV_AT_EPOCH":92323,"BSTAR":0.00031591,"MEAN_MOTION_DOT":4.48e-5,"MEAN_MOTION_DDOT":0},{"OBJECT_NAME":"GENESIS 2","OBJECT_ID":"2007-028A","EPOCH":"2023-09-15T13:54:42.952320","MEAN_MOTION":15.27217858,"ECCENTRICITY":0.0053184,"INCLINATION":64.4938,"RA_OF_ASC_NODE":53.3484,"ARG_OF_PERICENTER":249.2675,"MEAN_ANOMALY":110.2748,"EPHEMERIS_TYPE":0,"CLASSIFICATION_TYPE":"U","NORAD_CAT_ID":31789,"ELEMENT_SET_NO":999,"REV_AT_EPOCH":89520,"BSTAR":0.00043712,"MEAN_MOTION_DOT":0.00012003,"MEAN_MOTION_DDOT":0},{"OBJECT_NAME":"COSMOS 2428","OBJECT_ID":"2007-029A","EPOCH":"2023-09-15T12:55:58.149408","MEAN_MOTION":14.12559322,"ECCENTRICITY":0.0006126,"INCLINATION":70.9302,"RA_OF_ASC_NODE":305.1369,"ARG_OF_PERICENTER":77.0479,"MEAN_ANOMALY":283.1326,"EPHEMERIS_TYPE":0,"CLASSIFICATION_TYPE":"U","NORAD_CAT_ID":31792,"ELEMENT_SET_NO":999,"REV_AT_EPOCH":83611,"BSTAR":0.00012952,"MEAN_MOTION_DOT":1.92e-6,"MEAN_MOTION_DDOT":0},{"OBJECT_NAME":"SL-16 R\/B","OBJECT_ID":"2007-029B","EPOCH":"2023-09-15T12:46:21.474336","MEAN_MOTION":14.14555185,"ECCENTRICITY":0.0002725,"INCLINATION":70.9743,"RA_OF_ASC_NODE":276.7838,"ARG_OF_PERICENTER":273.9743,"MEAN_ANOMALY":198.6131,"EPHEMERIS_TYPE":0,"CLASSIFICATION_TYPE":"U","NORAD_CAT_ID":31793,"ELEMENT_SET_NO":999,"REV_AT_EPOCH":83721,"BSTAR":0.00013706,"MEAN_MOTION_DOT":2.15e-6,"MEAN_MOTION_DDOT":0},{"OBJECT_NAME":"KORONAS-FOTON","OBJECT_ID":"2009-003A","EPOCH":"2023-09-15T14:10:54.824448","MEAN_MOTION":15.21517247,"ECCENTRICITY":0.0018163,"INCLINATION":82.4376,"RA_OF_ASC_NODE":120.6232,"ARG_OF_PERICENTER":124.1518,"MEAN_ANOMALY":236.1443,"EPHEMERIS_TYPE":0,"CLASSIFICATION_TYPE":"U","NORAD_CAT_ID":33504,"ELEMENT_SET_NO":999,"REV_AT_EPOCH":80705,"BSTAR":0.0001819,"MEAN_MOTION_DOT":4.144e-5,"MEAN_MOTION_DDOT":0},{"OBJECT_NAME":"CZ-2C R\/B","OBJECT_ID":"2011-030B","EPOCH":"2023-09-15T12:56:17.433888","MEAN_MOTION":14.76329433,"ECCENTRICITY":0.0059087,"INCLINATION":97.7237,"RA_OF_ASC_NODE":228.3928,"ARG_OF_PERICENTER":55.0578,"MEAN_ANOMALY":60.0733,"EPHEMERIS_TYPE":0,"CLASSIFICATION_TYPE":"U","NORAD_CAT_ID":37731,"ELEMENT_SET_NO":999,"REV_AT_EPOCH":65616,"BSTAR":0.00028669,"MEAN_MOTION_DOT":1.996e-5,"MEAN_MOTION_DDOT":0},{"OBJECT_NAME":"H-2A R\/B","OBJECT_ID":"2012-025E","EPOCH":"2023-09-15T06:47:08.969280","MEAN_MOTION":14.86516379,"ECCENTRICITY":0.0053493,"INCLINATION":98.4414,"RA_OF_ASC_NODE":147.6747,"ARG_OF_PERICENTER":22.581,"MEAN_ANOMALY":337.7741,"EPHEMERIS_TYPE":0,"CLASSIFICATION_TYPE":"U","NORAD_CAT_ID":38341,"ELEMENT_SET_NO":999,"REV_AT_EPOCH":61317,"BSTAR":0.00033363,"MEAN_MOTION_DOT":2.966e-5,"MEAN_MOTION_DDOT":0},{"OBJECT_NAME":"CUSAT 2 & FALCON 9 R\/B","OBJECT_ID":"2013-055G","EPOCH":"2023-09-15T11:06:51.900480","MEAN_MOTION":14.9248016,"ECCENTRICITY":0.0414056,"INCLINATION":80.9461,"RA_OF_ASC_NODE":44.1859,"ARG_OF_PERICENTER":130.9584,"MEAN_ANOMALY":232.8253,"EPHEMERIS_TYPE":0,"CLASSIFICATION_TYPE":"U","NORAD_CAT_ID":39271,"ELEMENT_SET_NO":999,"REV_AT_EPOCH":52387,"BSTAR":0.00090885,"MEAN_MOTION_DOT":0.00055571,"MEAN_MOTION_DDOT":-3.6932e-7},{"OBJECT_NAME":"CZ-2C R\/B","OBJECT_ID":"2013-059B","EPOCH":"2023-09-15T13:14:57.336864","MEAN_MOTION":15.47536538,"ECCENTRICITY":0.0031514,"INCLINATION":97.0945,"RA_OF_ASC_NODE":303.6011,"ARG_OF_PERICENTER":125.3727,"MEAN_ANOMALY":235.0476,"EPHEMERIS_TYPE":0,"CLASSIFICATION_TYPE":"U","NORAD_CAT_ID":39364,"ELEMENT_SET_NO":999,"REV_AT_EPOCH":55014,"BSTAR":0.00055846,"MEAN_MOTION_DOT":0.00029261,"MEAN_MOTION_DDOT":0},{"OBJECT_NAME":"SL-4 R\/B","OBJECT_ID":"2014-021B","EPOCH":"2023-09-15T12:23:22.434432","MEAN_MOTION":15.14337563,"ECCENTRICITY":0.0150138,"INCLINATION":51.6128,"RA_OF_ASC_NODE":348.9585,"ARG_OF_PERICENTER":106.5533,"MEAN_ANOMALY":255.1991,"EPHEMERIS_TYPE":0,"CLASSIFICATION_TYPE":"U","NORAD_CAT_ID":39679,"ELEMENT_SET_NO":999,"REV_AT_EPOCH":51792,"BSTAR":0.00030571,"MEAN_MOTION_DOT":7.152e-5,"MEAN_MOTION_DDOT":0},{"OBJECT_NAME":"SL-27 R\/B","OBJECT_ID":"2014-084B","EPOCH":"2023-09-15T12:38:14.302752","MEAN_MOTION":15.5565852,"ECCENTRICITY":0.002446,"INCLINATION":74.7306,"RA_OF_ASC_NODE":81.406,"ARG_OF_PERICENTER":32.5021,"MEAN_ANOMALY":327.7699,"EPHEMERIS_TYPE":0,"CLASSIFICATION_TYPE":"U","NORAD_CAT_ID":40354,"ELEMENT_SET_NO":999,"REV_AT_EPOCH":49104,"BSTAR":0.00024839,"MEAN_MOTION_DOT":0.00017276,"MEAN_MOTION_DDOT":0},{"OBJECT_NAME":"YAOGAN-29","OBJECT_ID":"2015-069A","EPOCH":"2023-09-15T13:08:16.595520","MEAN_MOTION":14.81472027,"ECCENTRICITY":0.0002468,"INCLINATION":98.0646,"RA_OF_ASC_NODE":266.3039,"ARG_OF_PERICENTER":81.7201,"MEAN_ANOMALY":278.4291,"EPHEMERIS_TYPE":0,"CLASSIFICATION_TYPE":"U","NORAD_CAT_ID":41038,"ELEMENT_SET_NO":999,"REV_AT_EPOCH":42165,"BSTAR":0.0001024,"MEAN_MOTION_DOT":7.48e-6,"MEAN_MOTION_DDOT":0}]
